GLOBALSTAR M045         
1 25676U 99019A   24160.60639166 -.00000030  00000+0  55851-3 0  9994
2 25676  51.9978 290.0334 0000898 154.9496 218.1011 12.27039851147533
GLOBALSTAR M019         
1 25677U 99019B   24160.37036170 -.00000143  00000+0 -54868-3 0  9998
2 25677  51.9901  34.7705 0000552 344.0177 187.1139 12.13857868139741
GLOBALSTAR M044         
1 25678U 99019C   24160.63260569 -.00000076  00000+0  10941-3 0  9997
2 25678  51.9981 298.6703 0006455  45.5273 327.3547 11.90233302126840
GLOBALSTAR M042         
1 25679U 99019D   24160.38961170 -.00000045  00000+0  44062-3 0  9993
2 25679  52.0039  26.1754 0002125 244.6862 286.4982 12.22062790139550
GLOBALSTAR M025         
1 25770U 99031A   24160.39205851 -.00000070  00000+0 -74645-4 0  9997
2 25770  51.9833 305.1909 0001310 212.5613 159.5602 11.22550594439732
GLOBALSTAR M049         
1 25771U 99031B   24160.52951355 -.00000045  00000+0  70986-3 0  9994
2 25771  51.9896 320.8573 0003468 110.5760 249.5409 11.12109719 75851
GLOBALSTAR M047         
1 25772U 99031C   24160.51867206 -.00000051  00000+0  52431-3 0  9997
2 25772  51.9861 353.5508 0016085 343.9360  16.0934 11.31921211428797
GLOBALSTAR M052         
1 25773U 99031D   24160.52687926 -.00000027  00000+0  13045-2 0  9998
2 25773  51.9881  74.7911 0002418 286.0540 245.1536 11.15051227436821
